STARLINK-31865          
1 59791U 24093K   26068.40917724  .00002265  00000+0  91819-4 0  9991
2 59791  42.9992 210.3825 0000469 238.9678 121.1128 15.27566521102651
FLOCK 4G-8              
1 62613U 25009E   26068.72381419  .00013559  00000+0  50438-3 0  9996
2 62613  97.4045 151.2834 0003050 315.2538  44.8455 15.27623414 63721
